KUIPER-00112            
1 65150U 25171U   26008.13948755 -.00000590  00000+0 -47972-4 0  9999
2 65150  51.9036  63.3473 0008433 323.8614  36.1778 14.79961488 23952
KUIPER-00114            
1 65151U 25171V   26008.21918962  .00005661  00000+0  77039-3 0  9994
2 65151  51.9007  83.0053 0005242 267.1528  92.8835 14.79965239 23684
KUIPER-00115            
1 65152U 25171W   26008.15973033  .00007247  00000+0  97906-3 0  9995
2 65152  51.9012  75.7504 0009313 290.3913  69.6049 14.79895230 23782
KUIPER-00116            
1 65153U 25171X   26008.18805567 -.00003239  00000+0 -39596-3 0  9995
2 65153  51.9005  80.6664 0008753 253.0013 106.9990 14.79888447 23716
KUIPER-00118            
1 65154U 25171Y   26008.25294951 -.00000976  00000+0 -99075-4 0  9997
2 65154  51.9008  82.8352 0000629 340.3644  19.7294 14.79919675 23695
KUIPER-00119            
1 65155U 25171Z   26008.19889249 -.00000529  00000+0 -40137-4 0  9990
2 65155  51.9011  70.6586 0007344 286.9223  73.0934 14.79942400 23857
KUIPER-00120            
1 65762U 25217A   26008.20847446 -.00002849  00000+0 -37400-3 0  9995
2 65762  51.8996 319.5740 0003159 108.0776 252.0529 14.76587077 15791
KUIPER-00132            
1 65763U 25217B   26008.21900211  .00075611  00000+0  19921-2 0  9999
2 65763  51.8610 296.6137 0008375 109.8079 250.3811 15.37810418 16118
